{
    "links": {
        "self": "http://www.neowsapp.com/rest/v1/neo/3749024?api_key=iIulBulltgU6a56xZRHN4H3l9WmuAYTsLGpBGhQ2"
    },
    "id": "3749024",
    "neo_reference_id": "3749024",
    "name": "(2016 GB2)",
    "designation": "2016 GB2",
    "nasa_jpl_url": "http://ssd.jpl.nasa.gov/sbdb.cgi?sstr=3749024",
    "absolute_magnitude_h": 26.1,
    "estimated_diameter": {
        "kilometers": {
            "estimated_diameter_min": 0.0160160338,
            "estimated_diameter_max": 0.0358129403
        },
        "meters": {
            "estimated_diameter_min": 16.0160337979,
            "estimated_diameter_max": 35.8129403019
        },
        "miles": {
            "estimated_diameter_min": 0.0099518989,
            "estimated_diameter_max": 0.0222531225
        },
        "feet": {
            "estimated_diameter_min": 52.5460443254,
            "estimated_diameter_max": 117.4965270602
        }
    },
    "is_potentially_hazardous_asteroid": false,
    "close_approach_data": [
        {
            "close_approach_date": "2016-04-06",
            "close_approach_date_full": "2016-Apr-06 22:52",
            "epoch_date_close_approach": 1459983120000,
            "relative_velocity": {
                "kilometers_per_second": "5.8003721851",
                "kilometers_per_hour": "20881.3398662227",
                "miles_per_hour": "12974.8525407649"
            },
            "miss_distance": {
                "astronomical": "0.0879363934",
                "lunar": "34.2072570326",
                "kilometers": "13155097.148122058",
                "miles": "8174198.3252300804"
            },
            "orbiting_body": "Earth"
        }
    ],
    "orbital_data": {
        "orbit_id": "5",
        "orbit_determination_date": "2017-04-06 08:26:52",
        "first_observation_date": "2016-03-31",
        "last_observation_date": "2016-04-05",
        "data_arc_in_days": 5,
        "observations_used": 16,
        "orbit_uncertainty": "8",
        "minimum_orbit_intersection": ".0853989",
        "jupiter_tisserand_invariant": "3.367",
        "epoch_osculation": "2457479.5",
        "eccentricity": ".5330969839180649",
        "semi_major_axis": "2.327966497505833",
        "inclination": "1.527441223504644",
        "ascending_node_longitude": "3.828703127026571",
        "orbital_period": "1297.368998026327",
        "perihelion_distance": "1.086934579023172",
        "perihelion_argument": "195.2202330739407",
        "aphelion_distance": "3.568998415988494",
        "perihelion_time": "2457486.151820083857",
        "mean_anomaly": "358.154221941613",
        "mean_motion": ".2774846636135626",
        "equinox": "J2000",
        "orbit_class": {
            "orbit_class_type": "AMO",
            "orbit_class_description": "Near-Earth asteroid orbits similar to that of 1221 Amor",
            "orbit_class_range": "1.017 AU < q (perihelion) < 1.3 AU"
        }
    },
    "is_sentry_object": false
}